O3B MPOWER F1           
1 54755U 22174A   23363.82437660 -.00000023  00000+0  00000+0 0  9999
2 54755   0.0570  14.8884 0006049 276.5715  49.1470  5.00118463 20314
